{
  "features": [
    {
      "geometry": {
        "coordinates": [
          [
            [
              -0.6195599026548131,
              48.69028876960103
            ],
            [
              -0.619506116105499,
              48.69010131959894
            ],
            [
              -0.6194462288543866,
              48.69002210254502
            ],
            [
              -0.6194178415449084,
              48.69000495668379
            ],
            [
              -0.6193333022125279,
              48.68996250413034
            ],
            [
              -0.6192358143546232,
              48.68992944870767
            ],
            [
              -0.6191130517077347,
              48.689924172637504
            ],
            [
              -0.6189211885985245,
              48.68990298672461
            ],
            [
              -0.6186447870706993,
              48.68983934745678
            ],
            [
              -0.6186078078783929,
              48.68989449406426
            ],
            [
              -0.6185017282079868,
              48.68993373069875
            ],
            [
              -0.6181945702545546,
              48.69001508771817
            ],
            [
              -0.617510995358562,
              48.690945238248204
            ],
            [
              -0.6168021190401854,
              48.69190316302327
            ],
            [
              -0.618068876357489,
              48.69232391731061
            ],
            [
              -0.6195599026548131,
              48.69028876960103
            ]
          ]
        ],
        "type": "Polygon"
      },
      "properties": {
        "distance_point_m": 0.0,
        "nom": "usine d'extraction dite Mine de Halouze",
        "point_dedans": true,
        "precision": "zone_documentaire",
        "reference": "IA00061008",
        "surface_m2": 27517.0
      },
      "type": "Feature"
    },
    {
      "geometry": {
        "coordinates": [
          [
            [
              -0.5489692564564821,
              48.59866252046998
            ],
            [
              -0.5488910148387143,
              48.598709875962136
            ],
            [
              -0.5491458480141108,
              48.5988643512321
            ],
            [
              -0.5503209315478889,
              48.59957664655602
            ],
            [
              -0.5504058785843191,
              48.599628137318604
            ],
            [
              -0.5504224747897039,
              48.59967266352579
            ],
            [
              -0.5504107552669135,
              48.599700026157635
            ],
            [
              -0.5502437708766569,
              48.59984007372453
            ],
            [
              -0.5501267122567403,
              48.59991560118299
            ],
            [
              -0.5497977552952366,
              48.60006948550928
            ],
            [
              -0.5494558573988726,
              48.60023275922181
            ],
            [
              -0.5492463951626866,
              48.60034705963195
            ],
            [
              -0.549067827662735,
              48.60031636947208
            ],
            [
              -0.5488554608829501,
              48.600187640133626
            ],
            [
              -0.5484301212062963,
              48.599921194166456
            ],
            [
              -0.5480786191807459,
              48.59974258755113
            ],
            [
              -0.5478391605891013,
              48.59961466443975
            ],
            [
              -0.5476963682932552,
              48.599510871174274
            ],
            [
              -0.54766561709624,
              48.59945776246646
            ],
            [
              -0.548044042231762,
              48.59903228010587
            ],
            [
              -0.5481107106161096,
              48.59881418886033
            ],
            [
              -0.5474119894001818,
              48.598519875257914
            ],
            [
              -0.5474736387391729,
              48.598427994070754
            ],
            [
              -0.5477124819026068,
              48.59854693191481
            ],
            [
              -0.5481582018355914,
              48.5987137252721
            ],
            [
              -0.5481711406947143,
              48.59870433508682
            ],
            [
              -0.5480042999821517,
              48.5986462808561
            ],
            [
              -0.5478079270931432,
              48.598553089930164
            ],
            [
              -0.5469504400970309,
              48.59811943962121
            ],
            [
              -0.5465299980985345,
              48.59792487549912
            ],
            [
              -0.5460553679778855,
              48.59773192516211
            ],
            [
              -0.5465852540080204,
              48.59733794927341
            ],
            [
              -0.5468157159611934,
              48.5971329840323
            ],
            [
              -0.5471066062457564,
              48.596818164907894
            ],
            [
              -0.5471300474417502,
              48.59676344016389
            ],
            [
              -0.5472088967460909,
              48.596725071896536
            ],
            [
              -0.5473099688458967,
              48.596614006503984
            ],
            [
              -0.5474072375717531,
              48.59664712327941
            ],
            [
              -0.5475051154731098,
              48.59668922611614
            ],
            [
              -0.5479200690403396,
              48.59680291174595
            ],
            [
              -0.5479680213109845,
              48.59690953329164
            ],
            [
              -0.5480171920653834,
              48.59703412708177
            ],
            [
              -0.5478989182558368,
              48.59709168025126
            ],
            [
              -0.5479444342122234,
              48.59716235723724
            ],
            [
              -0.5481235994652867,
              48.5972020352961
            ],
            [
              -0.5482380725724242,
              48.59728866412331
            ],
            [
              -0.5483402167639343,
              48.59739366918171
            ],
            [
              -0.5484915338008981,
              48.59762326767757
            ],
            [
              -0.5485734296338423,
              48.59762982918251
            ],
            [
              -0.5486011344171249,
              48.59763800709102
            ],
            [
              -0.5486589810568283,
              48.59769030740249
            ],
            [
              -0.5488553522252204,
              48.597783496990424
            ],
            [
              -0.5490652719185304,
              48.59787628208346
            ],
            [
              -0.5491508243120201,
              48.59793675993777
            ],
            [
              -0.5491698563274755,
              48.5980172308755
            ],
            [
              -0.5492418611952088,
              48.59807811283311
            ],
            [
              -0.5492615027729408,
              48.59816756986876
            ],
            [
              -0.5499325242504368,
              48.598453695114124
            ],
            [
              -0.5495642913135297,
              48.59842866518434
            ],
            [
              -0.5492169190847307,
              48.59851106337351
            ],
            [
              -0.5488837030871351,
              48.59860204252113
            ],
            [
              -0.548912017749474,
              48.59861920647116
            ],
            [
              -0.5492581724254849,
              48.59851883694073
            ],
            [
              -0.5495784487070329,
              48.59843724708052
            ],
            [
              -0.5497699486111668,
              48.598458546160835
            ],
            [
              -0.5500027020977233,
              48.598487618242146
            ],
            [
              -0.5500593320506624,
              48.59852194560618
            ],
            [
              -0.5501841733323185,
              48.59876133640378
            ],
            [
              -0.5503374687674685,
              48.59881979188391
            ],
            [
              -0.5503910514343168,
              48.59880918852394
            ],
            [
              -0.5504717301869432,
              48.59879777649403
            ],
            [
              -0.550612697204113,
              48.5988746081626
            ],
            [
              -0.5506994722687977,
              48.598953057072805
            ],
            [
              -0.5509352768079517,
              48.59902705786023
            ],
            [
              -0.5509931273127022,
              48.59907935697799
            ],
            [
              -0.5509992241117472,
              48.599169218036415
            ],
            [
              -0.5504970588604576,
              48.599571390435074
            ],
            [
              -0.5495509308501535,
              48.59903235184497
            ],
            [
              -0.5489692564564821,
              48.59866252046998
            ]
          ]
        ],
        "type": "Polygon"
      },
      "properties": {
        "distance_point_m": 0.0,
        "nom": "affinerie, moulin à blé",
        "point_dedans": true,
        "precision": "zone_documentaire",
        "reference": "IA00060965",
        "surface_m2": 60081.0
      },
      "type": "Feature"
    },
    {
      "geometry": {
        "coordinates": [
          [
            [
              -0.29807427311108736,
              48.787827364887676
            ],
            [
              -0.2970046045461104,
              48.78857702726458
            ],
            [
              -0.2950869697729307,
              48.78754975833265
            ],
            [
              -0.29611244065411174,
              48.78674732280118
            ],
            [
              -0.29657824112813225,
              48.78700451444262
            ],
            [
              -0.29807427311108736,
              48.787827364887676
            ]
          ]
        ],
        "type": "Polygon"
      },
      "properties": {
        "distance_point_m": 0.0,
        "nom": "centrale hydroélectrique",
        "point_dedans": true,
        "precision": "zone_documentaire",
        "reference": "IA00060938",
        "surface_m2": 21308.0
      },
      "type": "Feature"
    },
    {
      "geometry": {
        "coordinates": [
          [
            [
              -0.2611699570317473,
              48.779758287654154
            ],
            [
              -0.26118130665785977,
              48.77972197169693
            ],
            [
              -0.26109916175775894,
              48.779715213572146
            ],
            [
              -0.2611019711293789,
              48.77976014434274
            ],
            [
              -0.2611699570317473,
              48.779758287654154
            ]
          ]
        ],
        "type": "Polygon"
      },
      "properties": {
        "distance_point_m": 0.0,
        "nom": "four à chaux",
        "point_dedans": true,
        "precision": "zone_documentaire",
        "reference": "IA00061003",
        "surface_m2": 25.0
      },
      "type": "Feature"
    },
    {
      "geometry": {
        "coordinates": [
          [
            [
              -0.19273542846843666,
              48.6287847492044
            ],
            [
              -0.19221636865796607,
              48.628735651480156
            ],
            [
              -0.19227240013274788,
              48.62898621449236
            ],
            [
              -0.19255155608980065,
              48.629554878441226
            ],
            [
              -0.19261401818470716,
              48.629688238455344
            ],
            [
              -0.1926629218895865,
              48.62982196201436
            ],
            [
              -0.1927471712718838,
              48.630089772629624
            ],
            [
              -0.19267882886432408,
              48.63008260299693
            ],
            [
              -0.19264512915243645,
              48.62997547874515
            ],
            [
              -0.1925793756384583,
              48.62978819304993
            ],
            [
              -0.1925136225950285,
              48.62960090728938
            ],
            [
              -0.19232952904449663,
              48.62925475268003
            ],
            [
              -0.19220570451000632,
              48.62900600746886
            ],
            [
              -0.1921877586216665,
              48.628934469971
            ],
            [
              -0.19210899802532966,
              48.628756535023015
            ],
            [
              -0.19207804233802955,
              48.62869434865411
            ],
            [
              -0.19203681868171069,
              48.62868645159092
            ],
            [
              -0.19195601654697034,
              48.62869762032009
            ],
            [
              -0.19194190974674213,
              48.628688996198
            ],
            [
              -0.19181769053297973,
              48.62865631719042
            ],
            [
              -0.19169347147432342,
              48.628623638052446
            ],
            [
              -0.1914976224780777,
              48.62852986265139
            ],
            [
              -0.19145749562494457,
              48.6285399406588
            ],
            [
              -0.19127136790434499,
              48.628382887964136
            ],
            [
              -0.19098664261141576,
              48.62839051973078
            ],
            [
              -0.1907295821082556,
              48.62840641171661
            ],
            [
              -0.19051484092170393,
              48.628448176036315
            ],
            [
              -0.19030064748653436,
              48.6284989276093
            ],
            [
              -0.19013630268980847,
              48.628476324447945
            ],
            [
              -0.19001427728569514,
              48.628479594125395
            ],
            [
              -0.18989170384256662,
              48.628473876034
            ],
            [
              -0.1893032141672622,
              48.628399619033
            ],
            [
              -0.18917954518798588,
              48.62837592491389
            ],
            [
              -0.18900917468194328,
              48.628254456062294
            ],
            [
              -0.1888090867579474,
              48.628313829433516
            ],
            [
              -0.18858352505112314,
              48.62840089167556
            ],
            [
              -0.18855805169526793,
              48.62842858087932
            ],
            [
              -0.18856133846388243,
              48.628482506780244
            ],
            [
              -0.18855106683531228,
              48.628536795803406
            ],
            [
              -0.18851203498465174,
              48.62856484811741
            ],
            [
              -0.1884708119683754,
              48.62855694981932
            ],
            [
              -0.18830592002767735,
              48.62852535648373
            ],
            [
              -0.18827825547453997,
              48.62851709502186
            ],
            [
              -0.18821210667522825,
              48.62854587342083
            ],
            [
              -0.18835713830419828,
              48.628920086851174
            ],
            [
              -0.18878895852940125,
              48.62998879956172
            ],
            [
              -0.18917190032379233,
              48.63092378492522
            ],
            [
              -0.1893305045179035,
              48.631297633238376
            ],
            [
              -0.1894777437123878,
              48.63170779494087
            ],
            [
              -0.18957978229249636,
              48.63182209137433
            ],
            [
              -0.19110248507216207,
              48.63385181889272
            ],
            [
              -0.19133848430368205,
              48.63393551662095
            ],
            [
              -0.1921758996679469,
              48.63385905483906
            ],
            [
              -0.19303988342910053,
              48.63377287231232
            ],
            [
              -0.19285866963354784,
              48.63369671109625
            ],
            [
              -0.19264869132722134,
              48.633594314002075
            ],
            [
              -0.19255103085219188,
              48.633551921118126
            ],
            [
              -0.1921935429760503,
              48.633480485257095
            ],
            [
              -0.19214792782483475,
              48.633400687493115
            ],
            [
              -0.19213381972535393,
              48.63339206342738
            ],
            [
              -0.1927995779719892,
              48.632951104384745
            ],
            [
              -0.19355585122945868,
              48.63243569486964
            ],
            [
              -0.1947430976457777,
              48.63163864688762
            ],
            [
              -0.19475210255778563,
              48.63134132846168
            ],
            [
              -0.19475836293617058,
              48.630999071949255
            ],
            [
              -0.19478108981585518,
              48.63092644346396
            ],
            [
              -0.19497190602369163,
              48.6300480965068
            ],
            [
              -0.1950133516359735,
              48.629614871928794
            ],
            [
              -0.1949801963555967,
              48.629516735908695
            ],
            [
              -0.1950203232792618,
              48.62950665672279
            ],
            [
              -0.19488567126160317,
              48.62930321628042
            ],
            [
              -0.19470117711040671,
              48.62917313189178
            ],
            [
              -0.19457530852045293,
              48.62911349292234
            ],
            [
              -0.19408171448091033,
              48.62903671286376
            ],
            [
              -0.19406870473246876,
              48.62904606423676
            ],
            [
              -0.193932022299549,
              48.62903172643609
            ],
            [
              -0.1939303761305789,
              48.62900476357236
            ],
            [
              -0.19360003437152803,
              48.62893260418717
            ],
            [
              -0.19331201473285112,
              48.62888631576723
            ],
            [
              -0.19273542846843666,
              48.6287847492044
            ]
          ]
        ],
        "type": "Polygon"
      },
      "properties": {
        "distance_point_m": 0.0,
        "nom": "affinerie de fer",
        "point_dedans": true,
        "precision": "zone_documentaire",
        "reference": "IA00060901",
        "surface_m2": 200749.0
      },
      "type": "Feature"
    },
    {
      "geometry": {
        "coordinates": [
          [
            [
              -0.5280440122198898,
              48.8257275405213
            ],
            [
              -0.5280830086458516,
              48.82569938198514
            ],
            [
              -0.5284693199248398,
              48.82536388898789
            ],
            [
              -0.5284130662549773,
              48.82533854249561
            ],
            [
              -0.5283704197191319,
              48.82531279424565
            ],
            [
              -0.5282869520059863,
              48.825288251152614
            ],
            [
              -0.5283005590793367,
              48.82528784942992
            ],
            [
              -0.5283779425282268,
              48.82522254767012
            ],
            [
              -0.5283062567658293,
              48.82517064940065
            ],
            [
              -0.5282351795462868,
              48.825127735572046
            ],
            [
              -0.5281783178548958,
              48.82509340447758
            ],
            [
              -0.527729061818075,
              48.82530472044984
            ],
            [
              -0.5274246145537754,
              48.825439741021135
            ],
            [
              -0.5273206235605734,
              48.825514829865945
            ],
            [
              -0.5272296311958046,
              48.82558053252686
            ],
            [
              -0.5271126406755485,
              48.82566500726921
            ],
            [
              -0.5269454782562965,
              48.82581397959037
            ],
            [
              -0.5269170474516488,
              48.825796813750515
            ],
            [
              -0.5268614022403512,
              48.825780451025814
            ],
            [
              -0.526668848645616,
              48.82595717952122
            ],
            [
              -0.526528290504934,
              48.8260963636561
            ],
            [
              -0.5264242969111264,
              48.82617145167757
            ],
            [
              -0.5263982984658707,
              48.826190223668014
            ],
            [
              -0.526226267775968,
              48.82626731902502
            ],
            [
              -0.5257712901966394,
              48.82659582721517
            ],
            [
              -0.5257855056258589,
              48.82660441026606
            ],
            [
              -0.5257211163476392,
              48.82666032435249
            ],
            [
              -0.525592337376867,
              48.82677215241296
            ],
            [
              -0.525464165796864,
              48.8268929648098
            ],
            [
              -0.525408894834345,
              48.82708364599095
            ],
            [
              -0.5253765831672685,
              48.82721063294957
            ],
            [
              -0.52564546311294,
              48.82735574245534
            ],
            [
              -0.5257506761851778,
              48.82729862415342
            ],
            [
              -0.5259765333292165,
              48.82721093924917
            ],
            [
              -0.5261763907137353,
              48.8271420258378
            ],
            [
              -0.5262946022420588,
              48.82707552108361
            ],
            [
              -0.5264524198489313,
              48.82698984271691
            ],
            [
              -0.5265440237825967,
              48.82693312521025
            ],
            [
              -0.5266752337144047,
              48.82685723406278
            ],
            [
              -0.5267792283147104,
              48.826782145868975
            ],
            [
              -0.5268578322498955,
              48.82673481414136
            ],
            [
              -0.5270168643159362,
              48.82666710396571
            ],
            [
              -0.5271616803121523,
              48.826590810688835
            ],
            [
              -0.5272390671214383,
              48.826525509741785
            ],
            [
              -0.5272638489332616,
              48.82648876861383
            ],
            [
              -0.5272886307101569,
              48.82645202747953
            ],
            [
              -0.5272849811984314,
              48.82639812059572
            ],
            [
              -0.5272825481948065,
              48.82636218267168
            ],
            [
              -0.5273073298983545,
              48.82632544152937
            ],
            [
              -0.5273426776088546,
              48.82624337635893
            ],
            [
              -0.5273928490505827,
              48.826178878517375
            ],
            [
              -0.527522230982328,
              48.82607603294127
            ],
            [
              -0.5275866176073107,
              48.82602011785603
            ],
            [
              -0.5280440122198898,
              48.8257275405213
            ]
          ]
        ],
        "type": "Polygon"
      },
      "properties": {
        "distance_point_m": 0.0,
        "nom": "filature de la Martinique",
        "point_dedans": true,
        "precision": "zone_documentaire",
        "reference": "IA00061119",
        "surface_m2": 17427.0
      },
      "type": "Feature"
    },
    {
      "geometry": {
        "coordinates": [
          [
            [
              -0.5125665826783496,
              48.847734881389215
            ],
            [
              -0.5124489127147408,
              48.84781035572841
            ],
            [
              -0.5123330601835744,
              48.84791278309869
            ],
            [
              -0.5121806091004193,
              48.84807930068127
            ],
            [
              -0.5119467621117142,
              48.848050160898794
            ],
            [
              -0.5114494195638143,
              48.84795674200872
            ],
            [
              -0.5111729170105708,
              48.84790184693203
            ],
            [
              -0.5109911010230297,
              48.84783516863861
            ],
            [
              -0.5107790310696617,
              48.84772436754697
            ],
            [
              -0.5107723688813148,
              48.84762553921668
            ],
            [
              -0.5107917214380252,
              48.84750794264372
            ],
            [
              -0.5108234755691236,
              48.84737197753729
            ],
            [
              -0.5108836667440861,
              48.84725318173462
            ],
            [
              -0.5110397537076207,
              48.84714057206232
            ],
            [
              -0.5110775639451276,
              48.847094450817174
            ],
            [
              -0.5113810015635367,
              48.84734660303549
            ],
            [
              -0.5113982490682348,
              48.847400109602006
            ],
            [
              -0.5117050042298293,
              48.84749912648475
            ],
            [
              -0.5119418778748887,
              48.84757318869799
            ],
            [
              -0.5125665826783496,
              48.847734881389215
            ]
          ]
        ],
        "type": "Polygon"
      },
      "properties": {
        "distance_point_m": 0.0,
        "nom": "filature des Roches",
        "point_dedans": true,
        "precision": "zone_documentaire",
        "reference": "IA00061035",
        "surface_m2": 6932.5
      },
      "type": "Feature"
    },
    {
      "geometry": {
        "coordinates": [
          [
            [
              -0.47030758746884566,
              48.86529831662065
            ],
            [
              -0.4695556195377583,
              48.866094288608394
            ],
            [
              -0.46920005438640094,
              48.86649168014133
            ],
            [
              -0.46893921390193316,
              48.866877321383356
            ],
            [
              -0.46965590657325224,
              48.86718960112488
            ],
            [
              -0.46955010593835506,
              48.86744472076537
            ],
            [
              -0.4696075739884523,
              48.86748806286155
            ],
            [
              -0.4695584887848213,
              48.867570502933496
            ],
            [
              -0.46947557985668315,
              48.86755490417215
            ],
            [
              -0.4690466737947376,
              48.86808044690813
            ],
            [
              -0.46840105854966413,
              48.86781111154733
            ],
            [
              -0.4685103080077046,
              48.867402862519214
            ],
            [
              -0.46882024022703345,
              48.866934782604815
            ],
            [
              -0.4690698582972161,
              48.866585474414535
            ],
            [
              -0.46947570668373184,
              48.86612361208625
            ],
            [
              -0.47030758746884566,
              48.86529831662065
            ]
          ]
        ],
        "type": "Polygon"
      },
      "properties": {
        "distance_point_m": 0.0,
        "nom": "filature, fromagerie industrielle",
        "point_dedans": true,
        "precision": "zone_documentaire",
        "reference": "IA00060902",
        "surface_m2": 7979.5
      },
      "type": "Feature"
    },
    {
      "geometry": {
        "coordinates": [
          [
            [
              -0.42732902486721663,
              48.86406210182462
            ],
            [
              -0.4272366562725076,
              48.864109756726485
            ],
            [
              -0.427198759483943,
              48.864155850743394
            ],
            [
              -0.4271419065291544,
              48.86432851063582
            ],
            [
              -0.4269601088362159,
              48.86467578117159
            ],
            [
              -0.42704359185114005,
              48.86470039409625
            ],
            [
              -0.42693049087592616,
              48.8648476605222
            ],
            [
              -0.42684048603667085,
              48.86493125377875
            ],
            [
              -0.4267712123069826,
              48.86491523523568
            ],
            [
              -0.42674693272796993,
              48.86496093891814
            ],
            [
              -0.42678897008880023,
              48.864977737795876
            ],
            [
              -0.42669955615351857,
              48.86507031560965
            ],
            [
              -0.4266492226378634,
              48.86513476890675
            ],
            [
              -0.42664033515569816,
              48.86520703643248
            ],
            [
              -0.4266681630519923,
              48.86521524081765
            ],
            [
              -0.42670724379735575,
              48.8651871163579
            ],
            [
              -0.4267782919818444,
              48.86523008894965
            ],
            [
              -0.4268167813012873,
              48.8651929797825
            ],
            [
              -0.4269517811630555,
              48.8651711087407
            ],
            [
              -0.4270808511506651,
              48.86526642845418
            ],
            [
              -0.42714598539550175,
              48.86521955412467
            ],
            [
              -0.4271311842595102,
              48.865201974983215
            ],
            [
              -0.427249608491837,
              48.86513557044949
            ],
            [
              -0.4272922376147165,
              48.865161353817825
            ],
            [
              -0.427357963007925,
              48.865123464038646
            ],
            [
              -0.42770491284448375,
              48.86541957689701
            ],
            [
              -0.42811048144829755,
              48.86577702007485
            ],
            [
              -0.4283419838709282,
              48.86597742208278
            ],
            [
              -0.42856046125236236,
              48.86618719862278
            ],
            [
              -0.42856341970250317,
              48.86623212189769
            ],
            [
              -0.4287369101996318,
              48.866173139154505
            ],
            [
              -0.428667042527856,
              48.86614813707213
            ],
            [
              -0.42858296473320384,
              48.866114540656454
            ],
            [
              -0.42795832464632255,
              48.86553833720452
            ],
            [
              -0.42752256493143326,
              48.86513675057955
            ],
            [
              -0.4275492099225715,
              48.865126985422705
            ],
            [
              -0.42754802691683685,
              48.86510901608502
            ],
            [
              -0.4276013168512082,
              48.86508948575347
            ],
            [
              -0.4275865155985249,
              48.86507190666625
            ],
            [
              -0.4276131605445104,
              48.865062141494604
            ],
            [
              -0.4275977677850898,
              48.86503557773917
            ],
            [
              -0.42763743941074484,
              48.865016437640605
            ],
            [
              -0.42762322968100847,
              48.8650078432261
            ],
            [
              -0.4278227704610259,
              48.864930111892
            ],
            [
              -0.4279263797156258,
              48.86505316526949
            ],
            [
              -0.4281531566178431,
              48.86497465280763
            ],
            [
              -0.42809276786412775,
              48.864886367375846
            ],
            [
              -0.4285717802726034,
              48.864701606640146
            ],
            [
              -0.42852619256045016,
              48.86463090037793
            ],
            [
              -0.4285113911259723,
              48.86461332139781
            ],
            [
              -0.42828582107978413,
              48.86429572841289
            ],
            [
              -0.4282591766518701,
              48.86430549374105
            ],
            [
              -0.4282289825474299,
              48.86426135102991
            ],
            [
              -0.4278530020087083,
              48.86435314153681
            ],
            [
              -0.4275699942037509,
              48.86419922267504
            ],
            [
              -0.42732902486721663,
              48.86406210182462
            ]
          ]
        ],
        "type": "Polygon"
      },
      "properties": {
        "distance_point_m": 0.0,
        "nom": "filature, usine de chaussures",
        "point_dedans": true,
        "precision": "zone_documentaire",
        "reference": "IA00060896",
        "surface_m2": 10718.5
      },
      "type": "Feature"
    },
    {
      "geometry": {
        "coordinates": [
          [
            [
              0.08856010642351506,
              48.432230726434554
            ],
            [
              0.08842102371167686,
              48.43229933223251
            ],
            [
              0.08848607993489158,
              48.432345941828316
            ],
            [
              0.08822092458795716,
              48.43249247501616
            ],
            [
              0.08821992778632655,
              48.432510455560994
            ],
            [
              0.08843962460366206,
              48.43269589919987
            ],
            [
              0.08838359230709168,
              48.43273053369002
            ],
            [
              0.08854875324549151,
              48.43292364074382
            ],
            [
              0.08885438326449648,
              48.432535032678224
            ],
            [
              0.08885737301744737,
              48.432481091028016
            ],
            [
              0.08856010642351506,
              48.432230726434554
            ]
          ]
        ],
        "type": "Polygon"
      },
      "properties": {
        "distance_point_m": 0.0,
        "nom": "imprimerie Alençonnaise",
        "point_dedans": true,
        "precision": "zone_documentaire",
        "reference": "IA00061002",
        "surface_m2": 1811.0
      },
      "type": "Feature"
    },
    {
      "geometry": {
        "coordinates": [
          [
            [
              0.09717180073830473,
              48.41837987663378
            ],
            [
              0.0970937447852959,
              48.418323950232335
            ],
            [
              0.09703773351250009,
              48.41835858918942
            ],
            [
              0.09651637110326518,
              48.41800372571753
            ],
            [
              0.09644635695166534,
              48.41804702407941
            ],
            [
              0.09629331917981156,
              48.41812429951505
            ],
            [
              0.09610315204317157,
              48.417894577883175
            ],
            [
              0.0958580572595519,
              48.41792458526262
            ],
            [
              0.09547358105135723,
              48.41705091974276
            ],
            [
              0.096046784557941,
              48.41695692911043
            ],
            [
              0.09670201371294015,
              48.41684693915485
            ],
            [
              0.09774334447205585,
              48.41660235600414
            ],
            [
              0.09874455475157264,
              48.41732905995171
            ],
            [
              0.09717180073830473,
              48.41837987663378
            ]
          ]
        ],
        "type": "Polygon"
      },
      "properties": {
        "distance_point_m": 0.0,
        "nom": "scierie Prout, puis Scierie Prout Frères, actuellement Maisons France Confort",
        "point_dedans": true,
        "precision": "zone_documentaire",
        "reference": "IA00061073",
        "surface_m2": 27665.5
      },
      "type": "Feature"
    },
    {
      "geometry": {
        "coordinates": [
          [
            [
              0.09760080716797873,
              48.41918260436759
            ],
            [
              0.09848457394501438,
              48.41885313411573
            ],
            [
              0.09850761426082094,
              48.418925718397084
            ],
            [
              0.09884725572778211,
              48.418898018855636
            ],
            [
              0.09884775218184728,
              48.418889028445165
            ],
            [
              0.09892928592424358,
              48.4188820207936
            ],
            [
              0.09871089661424948,
              48.418183480118216
            ],
            [
              0.09976029130378194,
              48.41803810456766
            ],
            [
              0.1009862500076894,
              48.41787903187284
            ],
            [
              0.10326058566753485,
              48.41759252078845
            ],
            [
              0.10330519140597715,
              48.41776465893744
            ],
            [
              0.10331869736169948,
              48.41776498889396
            ],
            [
              0.10341038813511995,
              48.41806431288824
            ],
            [
              0.10372164705497462,
              48.41830598245914
            ],
            [
              0.10394579939248777,
              48.41841048549217
            ],
            [
              0.10420203565264959,
              48.41768753791939
            ],
            [
              0.10429558622526879,
              48.41770782775087
            ],
            [
              0.10403439552787043,
              48.41852067986494
            ],
            [
              0.10380813923119109,
              48.41919034384561
            ],
            [
              0.10379314607335888,
              48.41921698523231
            ],
            [
              0.10377914412798245,
              48.41922564575905
            ],
            [
              0.10379165923905072,
              48.41924395651884
            ],
            [
              0.10377567482822059,
              48.41928857875925
            ],
            [
              0.10374767088895315,
              48.41930589980595
            ],
            [
              0.10360876618222886,
              48.41961759551405
            ],
            [
              0.10346837280767343,
              48.41995626225325
            ],
            [
              0.10321261112000663,
              48.42067021657433
            ],
            [
              0.10318113615090149,
              48.42075047038252
            ],
            [
              0.10301830648195871,
              48.421250633757715
            ],
            [
              0.10298980547975899,
              48.421276945011186
            ],
            [
              0.102962295994973,
              48.42128527543485
            ],
            [
              0.102852257968627,
              48.42131859706513
            ],
            [
              0.1027408523372763,
              48.4216219608825
            ],
            [
              0.10258099085400513,
              48.42206818089595
            ],
            [
              0.10250292366771528,
              48.42201225821127
            ],
            [
              0.10240230546766495,
              48.42187476171529
            ],
            [
              0.10235472391411202,
              48.42175656620051
            ],
            [
              0.10235819507821285,
              48.421693633360334
            ],
            [
              0.1025216472030018,
              48.421427551746994
            ],
            [
              0.1026740699529791,
              48.421116187771204
            ],
            [
              0.10269600565094965,
              48.42096368079744
            ],
            [
              0.1027079051698187,
              48.420747910881914
            ],
            [
              0.10271782136091014,
              48.42056810259094
            ],
            [
              0.1026717277246124,
              48.420422935837216
            ],
            [
              0.10259812532338801,
              48.42028609939505
            ],
            [
              0.10251151258119068,
              48.42013994242937
            ],
            [
              0.1022793038434303,
              48.419936212159854
            ],
            [
              0.1021972730214396,
              48.419952212525594
            ],
            [
              0.1021277568577187,
              48.41998652375937
            ],
            [
              0.10189120284423384,
              48.42010677780879
            ],
            [
              0.10182367010338238,
              48.4201051272012
            ],
            [
              0.10172305733115455,
              48.419967629929054
            ],
            [
              0.1015799416765603,
              48.41986510376673
            ],
            [
              0.10140832559333207,
              48.419788888327105
            ],
            [
              0.10113014668156613,
              48.419683059803674
            ],
            [
              0.10095456304181143,
              48.4196787670161
            ],
            [
              0.1008325090322457,
              48.41968478534738
            ],
            [
              0.10030178855336408,
              48.41974382817124
            ],
            [
              0.10020724344013442,
              48.41974151604244
            ],
            [
              0.09977900773530038,
              48.41965902208015
            ],
            [
              0.09971296457583952,
              48.419630399042696
            ],
            [
              0.0996329187572643,
              48.419610436002614
            ],
            [
              0.0994983510466346,
              48.41959814176817
            ],
            [
              0.09928175223630009,
              48.419601845734874
            ],
            [
              0.09921322742983131,
              48.419618174455344
            ],
            [
              0.09911868259052056,
              48.41961586145874
            ],
            [
              0.09886156446734366,
              48.41961857335085
            ],
            [
              0.09848090260140853,
              48.419654271810664
            ],
            [
              0.09819379199933645,
              48.419710263660576
            ],
            [
              0.09783815533756719,
              48.4197825827373
            ],
            [
              0.09760080716797873,
              48.41918260436759
            ]
          ]
        ],
        "type": "Polygon"
      },
      "properties": {
        "distance_point_m": 0.0,
        "nom": "moulin à farine dit moulin d'Ozé, puis filature d'Ozé, puis usine de matériel électroménager Moulinex",
        "point_dedans": true,
        "precision": "zone_documentaire",
        "reference": "IA00060969",
        "surface_m2": 93807.0
      },
      "type": "Feature"
    },
    {
      "geometry": {
        "coordinates": [
          [
            [
              -0.05371553246011827,
              48.46243197433081
            ],
            [
              -0.053719716318951546,
              48.46250388996229
            ],
            [
              -0.05358455182891512,
              48.462507368115745
            ],
            [
              -0.05381022897815477,
              48.46266361314577
            ],
            [
              -0.05421528380753372,
              48.46287826157522
            ],
            [
              -0.054458581519789974,
              48.46287199949748
            ],
            [
              -0.054519009827616836,
              48.46321255473429
            ],
            [
              -0.05472071286278327,
              48.463189356964655
            ],
            [
              -0.05471548125928799,
              48.46309946251658
            ],
            [
              -0.05472271992572373,
              48.462991241233986
            ],
            [
              -0.05488125640863495,
              48.462924139760254
            ],
            [
              -0.054945699966695044,
              48.462868463292
            ],
            [
              -0.05498729597469194,
              48.46288539828851
            ],
            [
              -0.05490985907835241,
              48.46295041218309
            ],
            [
              -0.05484541538173185,
              48.46300608862833
            ],
            [
              -0.054823614011964505,
              48.4630966789774
            ],
            [
              -0.05498999877049375,
              48.463164419033795
            ],
            [
              -0.055017555201339476,
              48.46317271253908
            ],
            [
              -0.055058628254404954,
              48.4631806580634
            ],
            [
              -0.05509708519157821,
              48.463143656358575
            ],
            [
              -0.05533986076150017,
              48.46312840303299
            ],
            [
              -0.05533567463425674,
              48.46305648749348
            ],
            [
              -0.05534238875144601,
              48.46293927672601
            ],
            [
              -0.05530803002211025,
              48.46281412052145
            ],
            [
              -0.055212367912309046,
              48.46279857762025
            ],
            [
              -0.05535982617779288,
              48.462308623495666
            ],
            [
              -0.05536863319430973,
              48.46222737045268
            ],
            [
              -0.05537796344693096,
              48.46215510685275
            ],
            [
              -0.05536130753589434,
              48.46210151816957
            ],
            [
              -0.05533113533876932,
              48.46204827748923
            ],
            [
              -0.055064907463722695,
              48.46189307921154
            ],
            [
              -0.05481219740592046,
              48.46173753237136
            ],
            [
              -0.054795542204632564,
              48.461683943591446
            ],
            [
              -0.054754993513979826,
              48.461684987421734
            ],
            [
              -0.054744093034725175,
              48.46173028263569
            ],
            [
              -0.05444516636376482,
              48.46171096857269
            ],
            [
              -0.05439938673002399,
              48.46162211771824
            ],
            [
              -0.05437235429634325,
              48.46162281351647
            ],
            [
              -0.05447437573333883,
              48.46198030431537
            ],
            [
              -0.05436676834943793,
              48.461992076993326
            ],
            [
              -0.054338689557025865,
              48.46197479387477
            ],
            [
              -0.05431113386195972,
              48.46196650020422
            ],
            [
              -0.05431270309962749,
              48.46199346856837
            ],
            [
              -0.054326742494240264,
              48.46200211013146
            ],
            [
              -0.054365283072319415,
              48.46219918232456
            ],
            [
              -0.05437783729686636,
              48.46241492917678
            ],
            [
              -0.05371553246011827,
              48.46243197433081
            ]
          ]
        ],
        "type": "Polygon"
      },
      "properties": {
        "distance_point_m": 0.0,
        "nom": "usine de fabrication des métaux",
        "point_dedans": true,
        "precision": "zone_documentaire",
        "reference": "IA00060959",
        "surface_m2": 11884.0
      },
      "type": "Feature"
    },
    {
      "geometry": {
        "coordinates": [
          [
            [
              -0.04386290242364564,
              48.45849876514501
            ],
            [
              -0.04478034932048564,
              48.458214142909526
            ],
            [
              -0.04614791763845328,
              48.45775590630659
            ],
            [
              -0.04622744433273647,
              48.45772685594555
            ],
            [
              -0.04638336738197607,
              48.45761481794275
            ],
            [
              -0.046542892581626624,
              48.45733163182489
            ],
            [
              -0.0464851800689627,
              48.45727009318991
            ],
            [
              -0.04594040116790567,
              48.457212055796184
            ],
            [
              -0.044006654299708806,
              48.45700959865093
            ],
            [
              -0.04386290242364564,
              48.45849876514501
            ]
          ]
        ],
        "type": "Polygon"
      },
      "properties": {
        "distance_point_m": 0.0,
        "nom": "faïencerie",
        "point_dedans": true,
        "precision": "zone_documentaire",
        "reference": "IA00060997",
        "surface_m2": 19389.0
      },
      "type": "Feature"
    },
    {
      "geometry": {
        "coordinates": [
          [
            [
              -0.038892242960958064,
              48.75722454802106
            ],
            [
              -0.03823766908196116,
              48.75673717343162
            ],
            [
              -0.0375700379756298,
              48.75625912830316
            ],
            [
              -0.03504078386242735,
              48.75443332622056
            ],
            [
              -0.03454779982580738,
              48.75485089048616
            ],
            [
              -0.0338760098184935,
              48.75547101171263
            ],
            [
              -0.03353932516055864,
              48.755767589721216
            ],
            [
              -0.0332277322419004,
              48.756027526397055
            ],
            [
              -0.034125351124419244,
              48.75648174773539
            ],
            [
              -0.03380538913525506,
              48.75683190490912
            ],
            [
              -0.033473397338855425,
              48.75720936864609
            ],
            [
              -0.033348429874702844,
              48.75763557438347
            ],
            [
              -0.03439296310110085,
              48.759211139617086
            ],
            [
              -0.03626308949186447,
              48.75859654674471
            ],
            [
              -0.037204667415737885,
              48.758167564260674
            ],
            [
              -0.03756278714677125,
              48.75800544074437
            ],
            [
              -0.038025986018352165,
              48.75777763718386
            ],
            [
              -0.038892242960958064,
              48.75722454802106
            ]
          ]
        ],
        "type": "Polygon"
      },
      "properties": {
        "distance_point_m": 0.0,
        "nom": "briqueterie Saint-Martin",
        "point_dedans": true,
        "precision": "zone_documentaire",
        "reference": "IA00061117",
        "surface_m2": 120172.0
      },
      "type": "Feature"
    },
    {
      "geometry": {
        "coordinates": [
          [
            [
              0.10319787042036688,
              48.76478015807357
            ],
            [
              0.1035967616549433,
              48.76593283453097
            ],
            [
              0.10422816508380148,
              48.76584015046947
            ],
            [
              0.1044095308963633,
              48.76600654886981
            ],
            [
              0.10459139663269398,
              48.76616395908655
            ],
            [
              0.10484623140413345,
              48.76623313862403
            ],
            [
              0.10480843544494955,
              48.76617822224513
            ],
            [
              0.10472685884739967,
              48.76617624406361
            ],
            [
              0.10463417995863825,
              48.7661289966929
            ],
            [
              0.10436811559838782,
              48.765771544888686
            ],
            [
              0.10401286992760893,
              48.765303929276364
            ],
            [
              0.10369642221698593,
              48.76487325344341
            ],
            [
              0.10368382428650888,
              48.76485494784244
            ],
            [
              0.10365763062145787,
              48.764836312416946
            ],
            [
              0.10370540255382742,
              48.76471147140311
            ],
            [
              0.10368270132157399,
              48.764629920735544
            ],
            [
              0.10359064976096437,
              48.764816687498524
            ],
            [
              0.10347227970518898,
              48.76474181583209
            ],
            [
              0.10341228442841616,
              48.76459636033483
            ],
            [
              0.10320884824896685,
              48.76458242449533
            ],
            [
              0.10319787042036688,
              48.76478015807357
            ]
          ]
        ],
        "type": "Polygon"
      },
      "properties": {
        "distance_point_m": 0.0,
        "nom": "laiterie industrielle, fromagerie industrielle dite laiterie fromagerie Lavalou",
        "point_dedans": true,
        "precision": "zone_documentaire",
        "reference": "IA00061133",
        "surface_m2": 6642.5
      },
      "type": "Feature"
    },
    {
      "geometry": {
        "coordinates": [
          [
            [
              0.29217787978958876,
              48.79577185328424
            ],
            [
              0.2925954336456231,
              48.795862307268514
            ],
            [
              0.2926245102357356,
              48.795826970242864
            ],
            [
              0.2928163797742768,
              48.79580432113168
            ],
            [
              0.29325407165187106,
              48.79576924334341
            ],
            [
              0.293239458529747,
              48.795525939699274
            ],
            [
              0.29336563483797495,
              48.79545680642968
            ],
            [
              0.2933421572945947,
              48.79538428265612
            ],
            [
              0.2934660005977111,
              48.79536009135557
            ],
            [
              0.29358416917964564,
              48.79518278861921
            ],
            [
              0.29373234523376074,
              48.794952171574245
            ],
            [
              0.2935939653026744,
              48.794994031806276
            ],
            [
              0.2935508185723695,
              48.795038049314485
            ],
            [
              0.2931215311533309,
              48.79491133667759
            ],
            [
              0.29316514469415805,
              48.79485833089966
            ],
            [
              0.2925857414529566,
              48.794737213960936
            ],
            [
              0.2923278600464001,
              48.795244312156576
            ],
            [
              0.2921271938770417,
              48.795698712576886
            ],
            [
              0.29217787978958876,
              48.79577185328424
            ]
          ]
        ],
        "type": "Polygon"
      },
      "properties": {
        "distance_point_m": 0.0,
        "nom": "distillerie, cidrerie, laiterie industrielle",
        "point_dedans": true,
        "precision": "zone_documentaire",
        "reference": "IA00060909",
        "surface_m2": 8727.5
      },
      "type": "Feature"
    },
    {
      "geometry": {
        "coordinates": [
          [
            [
              -0.12197556104715367,
              48.71401687210248
            ],
            [
              -0.12198078343272124,
              48.71433178328309
            ],
            [
              -0.12116537864113931,
              48.7143441244555
            ],
            [
              -0.12048685883066089,
              48.71437088124392
            ],
            [
              -0.12071321596045258,
              48.71383387796085
            ],
            [
              -0.12119445904869268,
              48.71392029923698
            ],
            [
              -0.12161976803087354,
              48.7139811785764
            ],
            [
              -0.12197556104715367,
              48.71401687210248
            ]
          ]
        ],
        "type": "Polygon"
      },
      "properties": {
        "distance_point_m": 0.0,
        "nom": "cidrerie distillerie dite cidrerie distillerie Pépin",
        "point_dedans": true,
        "precision": "zone_documentaire",
        "reference": "IA00061166",
        "surface_m2": 4699.5
      },
      "type": "Feature"
    },
    {
      "geometry": {
        "coordinates": [
          [
            [
              -0.06641173887856172,
              48.7390500986273
            ],
            [
              -0.06638231302459176,
              48.73878082696929
            ],
            [
              -0.06633982760677554,
              48.73852089178777
            ],
            [
              -0.06628125318789001,
              48.73845038957581
            ],
            [
              -0.06603812016085182,
              48.73824961586163
            ],
            [
              -0.06592202858869745,
              48.738126585815195
            ],
            [
              -0.06585197882437,
              48.738092381981936
            ],
            [
              -0.06562982579967133,
              48.738017081446145
            ],
            [
              -0.06550700906823775,
              48.73801123591213
            ],
            [
              -0.0652650697844387,
              48.73806245607863
            ],
            [
              -0.06496983461852172,
              48.73813304661221
            ],
            [
              -0.06513882444902405,
              48.73846174000516
            ],
            [
              -0.06531982103493202,
              48.73876312189961
            ],
            [
              -0.06543749590352825,
              48.738913114561704
            ],
            [
              -0.06558287510959149,
              48.7390713962666
            ],
            [
              -0.0657764087241191,
              48.73935445349191
            ],
            [
              -0.06647348183032022,
              48.739174524895
            ],
            [
              -0.06641173887856172,
              48.7390500986273
            ]
          ]
        ],
        "type": "Polygon"
      },
      "properties": {
        "distance_point_m": 0.0,
        "nom": "moulin à farine",
        "point_dedans": true,
        "precision": "zone_documentaire",
        "reference": "IA00061091",
        "surface_m2": 9829.5
      },
      "type": "Feature"
    },
    {
      "geometry": {
        "coordinates": [
          [
            [
              0.5491192491200619,
              48.74166941227991
            ],
            [
              0.5491120747395465,
              48.74182223868226
            ],
            [
              0.5491770823993986,
              48.74188656277945
            ],
            [
              0.5492017350796597,
              48.74194105972669
            ],
            [
              0.5492183696836632,
              48.74216636260308
            ],
            [
              0.5492740939241535,
              48.74242846188039
            ],
            [
              0.5494083310979465,
              48.7424672119575
            ],
            [
              0.5500480233622624,
              48.742462347745395
            ],
            [
              0.5506490467605613,
              48.742411694333896
            ],
            [
              0.5513638686874276,
              48.7422553913573
            ],
            [
              0.5520379090253217,
              48.74209824772487
            ],
            [
              0.5520782648201734,
              48.74210807387584
            ],
            [
              0.5520230520146361,
              48.74212493832421
            ],
            [
              0.5519084108467738,
              48.74224856509053
            ],
            [
              0.5519615161378868,
              48.74227664966937
            ],
            [
              0.5520842700020526,
              48.74227016897548
            ],
            [
              0.552323034048523,
              48.742401043931885
            ],
            [
              0.552444523796419,
              48.74242153225195
            ],
            [
              0.5527554662538018,
              48.74246390206704
            ],
            [
              0.5533535379556276,
              48.74247616361155
            ],
            [
              0.5529104620276353,
              48.74235010037802
            ],
            [
              0.5524266108248227,
              48.74222319926435
            ],
            [
              0.5524414676572125,
              48.74219650861706
            ],
            [
              0.553409593280826,
              48.74244131895689
            ],
            [
              0.5534380421991878,
              48.74241490682089
            ],
            [
              0.5534915697567838,
              48.742434000916866
            ],
            [
              0.5537638416462798,
              48.74243058324223
            ],
            [
              0.5539125171047636,
              48.7424516272463
            ],
            [
              0.5539163079201366,
              48.742370719044956
            ],
            [
              0.5539205199234418,
              48.74228082103667
            ],
            [
              0.5538249512525939,
              48.74228786078917
            ],
            [
              0.5533687046177497,
              48.742152530849346
            ],
            [
              0.5528721044658943,
              48.74200737328041
            ],
            [
              0.5529438588439285,
              48.74192785852134
            ],
            [
              0.5528741030171286,
              48.74167447195461
            ],
            [
              0.5528341687892359,
              48.74165565626678
            ],
            [
              0.5528291122000202,
              48.74176353388815
            ],
            [
              0.552745872490584,
              48.741797820880244
            ],
            [
              0.552599306478353,
              48.74173182640843
            ],
            [
              0.5525560008663293,
              48.74178492903368
            ],
            [
              0.552542829941452,
              48.74177566050432
            ],
            [
              0.5524999456761474,
              48.74181977330734
            ],
            [
              0.552392892584312,
              48.74178158418164
            ],
            [
              0.5524077493083037,
              48.74175489352834
            ],
            [
              0.5522603408826028,
              48.74170687823871
            ],
            [
              0.552099444469941,
              48.74194653631695
            ],
            [
              0.5520862735853335,
              48.7419372677385
            ],
            [
              0.5522492774428013,
              48.74165266067615
            ],
            [
              0.5522365280900577,
              48.741634402311654
            ],
            [
              0.5520882771430713,
              48.74160436640571
            ],
            [
              0.552072577273701,
              48.741649036622
            ],
            [
              0.5520560343458395,
              48.7417116864327
            ],
            [
              0.5519388649404323,
              48.741889252059515
            ],
            [
              0.5518594184097979,
              48.74184263025426
            ],
            [
              0.551793564377529,
              48.74179628721021
            ],
            [
              0.5517005257740686,
              48.7417493864795
            ],
            [
              0.551685247109893,
              48.74178506684209
            ],
            [
              0.5516291913385999,
              48.741819910706916
            ],
            [
              0.551530250343181,
              48.741898866996074
            ],
            [
              0.5513077124966099,
              48.742002282810425
            ],
            [
              0.5512397504603666,
              48.74200088843883
            ],
            [
              0.5511577743487583,
              48.74200820493544
            ],
            [
              0.5508999403335897,
              48.741993916000546
            ],
            [
              0.5507109119514922,
              48.741963041635984
            ],
            [
              0.5505597085217968,
              48.74199593238661
            ],
            [
              0.5501651070822152,
              48.74199683181334
            ],
            [
              0.5500423536224135,
              48.74200331053554
            ],
            [
              0.5499607992183051,
              48.742001636420625
            ],
            [
              0.5499204439041219,
              48.74199180955301
            ],
            [
              0.5495597784431357,
              48.74184942839334
            ],
            [
              0.5492777149090697,
              48.7417716492852
            ],
            [
              0.5491982709330322,
              48.7417250257044
            ],
            [
              0.5491192491200619,
              48.74166941227991
            ]
          ]
        ],
        "type": "Polygon"
      },
      "properties": {
        "distance_point_m": 0.0,
        "nom": "affinerie",
        "point_dedans": true,
        "precision": "zone_documentaire",
        "reference": "IA00061029",
        "surface_m2": 16911.0
      },
      "type": "Feature"
    },
    {
      "geometry": {
        "coordinates": [
          [
            [
              0.655075522330054,
              48.77833221217193
            ],
            [
              0.6547217217595879,
              48.778631190946655
            ],
            [
              0.6543407120057279,
              48.778929634335626
            ],
            [
              0.6549090543569909,
              48.779309703893894
            ],
            [
              0.6550414443189259,
              48.779393283227776
            ],
            [
              0.6554950477930246,
              48.77960013902546
            ],
            [
              0.656442670260291,
              48.78002363588451
            ],
            [
              0.6564830750063307,
              48.780033426413226
            ],
            [
              0.6565238835967862,
              48.780034227068064
            ],
            [
              0.6566195074587788,
              48.78002710534793
            ],
            [
              0.6566755341212535,
              48.77999221337894
            ],
            [
              0.6568887383689067,
              48.78009537150123
            ],
            [
              0.656999983911286,
              48.7800435670112
            ],
            [
              0.6571256395388827,
              48.77997404950496
            ],
            [
              0.6572380957033036,
              48.77989527519808
            ],
            [
              0.6576735069594208,
              48.7795978898419
            ],
            [
              0.6580108695213125,
              48.77936156496256
            ],
            [
              0.6579448739391596,
              48.77931528202341
            ],
            [
              0.657875246159856,
              48.77934990788015
            ],
            [
              0.6578488479669578,
              48.77933139467894
            ],
            [
              0.6577416409290882,
              48.77929330129392
            ],
            [
              0.657662446634679,
              48.779237761580575
            ],
            [
              0.6575032512446666,
              48.77914466172946
            ],
            [
              0.6574368527223495,
              48.77910736837175
            ],
            [
              0.65723523553317,
              48.77904942729329
            ],
            [
              0.6571656076377271,
              48.779084052744544
            ],
            [
              0.6571231849061052,
              48.77911921178648
            ],
            [
              0.6567924060866792,
              48.77890577394689
            ],
            [
              0.6566364436643136,
              48.778740753945726
            ],
            [
              0.656466879745066,
              48.77857546682845
            ],
            [
              0.656335297274404,
              48.77847390927065
            ],
            [
              0.6562173177448183,
              48.77837261847758
            ],
            [
              0.6561393381162767,
              48.77829010809157
            ],
            [
              0.6559841874137015,
              48.77810710740201
            ],
            [
              0.6558682290270033,
              48.77796086685911
            ],
            [
              0.6557394769033305,
              48.77779637946302
            ],
            [
              0.6554141004907077,
              48.77806892475099
            ],
            [
              0.655075522330054,
              48.77833221217193
            ]
          ]
        ],
        "type": "Polygon"
      },
      "properties": {
        "distance_point_m": 0.0,
        "nom": "usine de quincaillerie, tréfilerie dite établissements Bohin",
        "point_dedans": true,
        "precision": "zone_documentaire",
        "reference": "IA00061155",
        "surface_m2": 30767.0
      },
      "type": "Feature"
    },
    {
      "geometry": {
        "coordinates": [
          [
            [
              0.6475563788772716,
              48.774495240869975
            ],
            [
              0.6475823656461341,
              48.77452274629679
            ],
            [
              0.6476083524423877,
              48.77455025171728
            ],
            [
              0.6477127052066604,
              48.77465128346344
            ],
            [
              0.6480178379984952,
              48.774828252043385
            ],
            [
              0.6480026155084927,
              48.77486394367904
            ],
            [
              0.6479329870720885,
              48.774898563876434
            ],
            [
              0.6478661955104967,
              48.77487025493339
            ],
            [
              0.6478377767076973,
              48.77489668880522
            ],
            [
              0.6478781758700553,
              48.77490648228776
            ],
            [
              0.648155702421806,
              48.77509190460657
            ],
            [
              0.6481169240198171,
              48.77504615173612
            ],
            [
              0.6480925576794082,
              48.77498268695318
            ],
            [
              0.6481489898594972,
              48.77493880895686
            ],
            [
              0.6482157816622156,
              48.774967117740104
            ],
            [
              0.648243389879684,
              48.77495866352431
            ],
            [
              0.6482965802529934,
              48.77498670443459
            ],
            [
              0.6483245936701505,
              48.77496926032802
            ],
            [
              0.6484837599492556,
              48.775062372748636
            ],
            [
              0.648524564529784,
              48.775063176139106
            ],
            [
              0.6485030338886467,
              48.77493678232996
            ],
            [
              0.6483726916686529,
              48.774808246057674
            ],
            [
              0.6482407292325045,
              48.7747156691253
            ],
            [
              0.6482971609993008,
              48.77467179104874
            ],
            [
              0.6480984077633012,
              48.77455090520075
            ],
            [
              0.6480431917038508,
              48.77456781356491
            ],
            [
              0.6480167994176497,
              48.774549298114
            ],
            [
              0.647924021295833,
              48.774493483862294
            ],
            [
              0.6477516616965697,
              48.77439111289284
            ],
            [
              0.6474585122806646,
              48.77425037098266
            ],
            [
              0.6474189244103125,
              48.77422259760255
            ],
            [
              0.6471625266749508,
              48.77417255745986
            ],
            [
              0.6470137233597549,
              48.77415163017018
            ],
            [
              0.6469201361426168,
              48.774113794868704
            ],
            [
              0.6468665419518352,
              48.774094743198454
            ],
            [
              0.6468653256110878,
              48.774121712820794
            ],
            [
              0.6469848990895297,
              48.774187053729776
            ],
            [
              0.6472780468726004,
              48.77432779680991
            ],
            [
              0.6474108173313539,
              48.774402395089886
            ],
            [
              0.6475563788772716,
              48.774495240869975
            ]
          ]
        ],
        "type": "Polygon"
      },
      "properties": {
        "distance_point_m": 0.0,
        "nom": "laminoir, usine de quincaillerie dite usine de la Batterie",
        "point_dedans": true,
        "precision": "zone_documentaire",
        "reference": "IA00061113",
        "surface_m2": 2912.0
      },
      "type": "Feature"
    },
    {
      "geometry": {
        "coordinates": [
          [
            [
              0.6250606373610091,
              48.766257782370126
            ],
            [
              0.6255463235296824,
              48.76575455508322
            ],
            [
              0.6258805722031805,
              48.765887173064925
            ],
            [
              0.6256078743167548,
              48.76619668094148
            ],
            [
              0.62554069694201,
              48.76617734916668
            ],
            [
              0.625499490598014,
              48.76618552778329
            ],
            [
              0.6254426397690517,
              48.766238385277305
            ],
            [
              0.6255230072383694,
              48.76626697738517
            ],
            [
              0.6254492846157371,
              48.76639148335976
            ],
            [
              0.6250606373610091,
              48.766257782370126
            ]
          ]
        ],
        "type": "Polygon"
      },
      "properties": {
        "distance_point_m": 0.0,
        "nom": "tannerie, usine de construction mécanique",
        "point_dedans": true,
        "precision": "zone_documentaire",
        "reference": "IA00061052",
        "surface_m2": 1884.0
      },
      "type": "Feature"
    },
    {
      "geometry": {
        "coordinates": [
          [
            [
              0.623975798112926,
              48.76287994159136
            ],
            [
              0.6241722199213238,
              48.762451944610994
            ],
            [
              0.6246980456229028,
              48.762561384447395
            ],
            [
              0.6246527501746298,
              48.762659461684436
            ],
            [
              0.624558381372227,
              48.762639588264044
            ],
            [
              0.6245872144834401,
              48.76260416975993
            ],
            [
              0.6242093309458875,
              48.76253366530567
            ],
            [
              0.6241191473666797,
              48.76272082950241
            ],
            [
              0.6242003272196682,
              48.76273144281642
            ],
            [
              0.624259221743707,
              48.76263363631793
            ],
            [
              0.6243132051567278,
              48.762643708432854
            ],
            [
              0.6241917326900891,
              48.76292023040791
            ],
            [
              0.623975798112926,
              48.76287994159136
            ]
          ]
        ],
        "type": "Polygon"
      },
      "properties": {
        "distance_point_m": 0.0,
        "nom": "usine d'habillement",
        "point_dedans": true,
        "precision": "zone_documentaire",
        "reference": "IA00061054",
        "surface_m2": 826.0
      },
      "type": "Feature"
    },
    {
      "geometry": {
        "coordinates": [
          [
            [
              0.7473919889721867,
              48.51567923774904
            ],
            [
              0.7479256773713248,
              48.51618432475414
            ],
            [
              0.747731941030812,
              48.51627964670451
            ],
            [
              0.7469306482033269,
              48.515697489101015
            ],
            [
              0.7462063302350448,
              48.515215779814966
            ],
            [
              0.746101531065028,
              48.515132796637424
            ],
            [
              0.7459843569988713,
              48.51502258017423
            ],
            [
              0.746718688792396,
              48.514640531444556
            ],
            [
              0.7471100457500842,
              48.51498993256913
            ],
            [
              0.7476974771262953,
              48.515505039511346
            ],
            [
              0.7473919889721867,
              48.51567923774904
            ]
          ]
        ],
        "type": "Polygon"
      },
      "properties": {
        "distance_point_m": 0.0,
        "nom": "affinerie dite forge de Beaumont",
        "point_dedans": true,
        "precision": "zone_documentaire",
        "reference": "IA00061153",
        "surface_m2": 9221.0
      },
      "type": "Feature"
    },
    {
      "geometry": {
        "coordinates": [
          [
            [
              0.7261730036152166,
              48.5045745711398
            ],
            [
              0.7254999230463293,
              48.50448068922059
            ],
            [
              0.7253116480802969,
              48.504450085365555
            ],
            [
              0.7255395768561276,
              48.503878473914455
            ],
            [
              0.7256195969415661,
              48.50390700486712
            ],
            [
              0.7257000069637102,
              48.50392654360779
            ],
            [
              0.7257549131461031,
              48.50390959554551
            ],
            [
              0.7257958978431377,
              48.503901380561004
            ],
            [
              0.725865115225433,
              48.50386670718571
            ],
            [
              0.7259096081904843,
              48.503777562732296
            ],
            [
              0.725898415489782,
              48.50372335073256
            ],
            [
              0.7259127266869708,
              48.503705625456206
            ],
            [
              0.7259401796326667,
              48.503697151377644
            ],
            [
              0.7260078374705959,
              48.50369844655378
            ],
            [
              0.7262359253639367,
              48.50374781066793
            ],
            [
              0.7263039730192868,
              48.50374011351483
            ],
            [
              0.7264133948425735,
              48.5037152089629
            ],
            [
              0.7265096747028112,
              48.503681053174354
            ],
            [
              0.7266755606291472,
              48.50360323128979
            ],
            [
              0.7267312454988885,
              48.503568298445664
            ],
            [
              0.7268100967884319,
              48.50362380509299
            ],
            [
              0.7268881689564504,
              48.503697296011744
            ],
            [
              0.7269546579191954,
              48.50372556713752
            ],
            [
              0.727035457779832,
              48.50373611281434
            ],
            [
              0.727144879247596,
              48.50371120758873
            ],
            [
              0.727199005555953,
              48.503712243183934
            ],
            [
              0.7274749882880692,
              48.50390651510151
            ],
            [
              0.7279264954492294,
              48.50411314320782
            ],
            [
              0.7278986531323897,
              48.504130609905815
            ],
            [
              0.7278700318382286,
              48.504166060923026
            ],
            [
              0.7278820056260873,
              48.50420228839282
            ],
            [
              0.7278808371922576,
              48.504229264880635
            ],
            [
              0.727892421525572,
              48.50427448450977
            ],
            [
              0.7278638001487235,
              48.50430993552146
            ],
            [
              0.7277791042770329,
              48.50438931202636
            ],
            [
              0.7277222507133135,
              48.504451221820446
            ],
            [
              0.7274801346327824,
              48.50472557830522
            ],
            [
              0.7272523271132106,
              48.50498220881741
            ],
            [
              0.7268943691255186,
              48.504804367305226
            ],
            [
              0.7267749204449971,
              48.50474808394105
            ],
            [
              0.7261730036152166,
              48.5045745711398
            ]
          ]
        ],
        "type": "Polygon"
      },
      "properties": {
        "distance_point_m": 11.7,
        "nom": "moulin à papier, grosse forge",
        "point_dedans": false,
        "precision": "zone_documentaire",
        "reference": "IA00061060",
        "surface_m2": 17262.0
      },
      "type": "Feature"
    },
    {
      "geometry": {
        "coordinates": [
          [
            [
              0.5479643515255781,
              48.50841878269104
            ],
            [
              0.5478865231454098,
              48.50834517467547
            ],
            [
              0.5478091153518,
              48.50826257508443
            ],
            [
              0.547218416906524,
              48.508439384650465
            ],
            [
              0.5474583630333699,
              48.50910135276959
            ],
            [
              0.5476014087057921,
              48.5095183145657
            ],
            [
              0.5477338671509152,
              48.50987205616334
            ],
            [
              0.5477055414639301,
              48.50989847202339
            ],
            [
              0.5477584093039802,
              48.50992656387291
            ],
            [
              0.547786314594371,
              48.50990913950936
            ],
            [
              0.5478281724952042,
              48.509883002951284
            ],
            [
              0.549275947733305,
              48.50933686607576
            ],
            [
              0.5507795002155981,
              48.508755861168986
            ],
            [
              0.5508742240358876,
              48.50875781402217
            ],
            [
              0.5512442050268779,
              48.50866643892763
            ],
            [
              0.5512196598419542,
              48.50861193188368
            ],
            [
              0.5514116255241193,
              48.508561887629234
            ],
            [
              0.5513469042397156,
              48.508497552331505
            ],
            [
              0.5518251376858251,
              48.50840840671926
            ],
            [
              0.5523287548696131,
              48.508355782937876
            ],
            [
              0.5523857143052293,
              48.50800594941286
            ],
            [
              0.5524062736392533,
              48.50756536395972
            ],
            [
              0.5509145286664523,
              48.50789462707351
            ],
            [
              0.5508498088146518,
              48.50783029147111
            ],
            [
              0.5496404443187816,
              48.507913354804735
            ],
            [
              0.5488273646170604,
              48.50821158776638
            ],
            [
              0.5488057635309963,
              48.50809413953038
            ],
            [
              0.5480332718798251,
              48.508393204636974
            ],
            [
              0.5479643515255781,
              48.50841878269104
            ]
          ]
        ],
        "type": "Polygon"
      },
      "properties": {
        "distance_point_m": 0.0,
        "nom": "cartonnerie",
        "point_dedans": true,
        "precision": "zone_documentaire",
        "reference": "IA00061147",
        "surface_m2": 45406.5
      },
      "type": "Feature"
    },
    {
      "geometry": {
        "coordinates": [
          [
            [
              0.6735622407404207,
              48.652574586498865
            ],
            [
              0.6740000732606274,
              48.652502146699966
            ],
            [
              0.6743149310702495,
              48.653057214138656
            ],
            [
              0.6738750950021394,
              48.65317460953714
            ],
            [
              0.6735622407404207,
              48.652574586498865
            ]
          ]
        ],
        "type": "Polygon"
      },
      "properties": {
        "distance_point_m": 0.0,
        "nom": "fonderies du Perche",
        "point_dedans": true,
        "precision": "zone_documentaire",
        "reference": "IA00061135",
        "surface_m2": 2319.5
      },
      "type": "Feature"
    },
    {
      "geometry": {
        "coordinates": [
          [
            [
              0.716611622072383,
              48.6159548216954
            ],
            [
              0.7164190286808215,
              48.616014119653556
            ],
            [
              0.716308582821059,
              48.61605699537325
            ],
            [
              0.7158480889252377,
              48.61572420322736
            ],
            [
              0.7153480971130931,
              48.6153636546051
            ],
            [
              0.7143740766545028,
              48.61467004536218
            ],
            [
              0.7149298301358143,
              48.61437475256165
            ],
            [
              0.7154313793763929,
              48.614699337952565
            ],
            [
              0.7161451916563729,
              48.6151359792717
            ],
            [
              0.7162149547836288,
              48.615092323308325
            ],
            [
              0.7162412907957555,
              48.61511082619192
            ],
            [
              0.7162827563233807,
              48.615093623905054
            ],
            [
              0.7165439324529512,
              48.61501764392741
            ],
            [
              0.7167782124693254,
              48.615247108262956
            ],
            [
              0.7165095826457019,
              48.61549392379652
            ],
            [
              0.7166536481572052,
              48.61561367182426
            ],
            [
              0.716611622072383,
              48.6159548216954
            ]
          ]
        ],
        "type": "Polygon"
      },
      "properties": {
        "distance_point_m": 0.0,
        "nom": "briqueterie",
        "point_dedans": true,
        "precision": "zone_documentaire",
        "reference": "IA00061095",
        "surface_m2": 12711.5
      },
      "type": "Feature"
    }
  ],
  "type": "FeatureCollection"
}
