{"type":"FeatureCollection","features":[{"type":"Feature","properties":{"nom":"Orne","code":"61","source":"API Découpage administratif"},"geometry":{"coordinates":[[[-0.727874,48.472238],[-0.73093,48.473132],[-0.733738,48.467059],[-0.737262,48.465116],[-0.735976,48.461382],[-0.727674,48.45936],[-0.724988,48.457408],[-0.725452,48.455471],[-0.714954,48.454488],[-0.71484,48.449091],[-0.727284,48.444793],[-0.735307,48.445651],[-0.741014,48.442244],[-0.746526,48.442067],[-0.747652,48.438971],[-0.751126,48.437656],[-0.764559,48.436338],[-0.766402,48.440717],[-0.77399,48.442728],[-0.775363,48.445776],[-0.779789,48.446064],[-0.777607,48.451638],[-0.778927,48.457277],[-0.777424,48.460762],[-0.777891,48.465534],[-0.781853,48.466013],[-0.784694,48.464051],[-0.786827,48.465843],[-0.796761,48.466198],[-0.796493,48.463464],[-0.799069,48.462757],[-0.798668,48.459222],[-0.81296,48.455131],[-0.81606,48.458484],[-0.814429,48.45989],[-0.816212,48.462493],[-0.81413,48.464244],[-0.815336,48.467676],[-0.818401,48.468682],[-0.81478,48.472231],[-0.820881,48.476087],[-0.826551,48.475925],[-0.826308,48.478984],[-0.832311,48.479289],[-0.83164,48.484353],[-0.837704,48.484507],[-0.841047,48.492366],[-0.840143,48.493814],[-0.845787,48.497426],[-0.845507,48.499062],[-0.847683,48.499521],[-0.850451,48.497633],[-0.860442,48.501485],[-0.854628,48.508439],[-0.855944,48.508763],[-0.856392,48.51193],[-0.847446,48.521647],[-0.8271,48.530453],[-0.827306,48.532209],[-0.825372,48.532976],[-0.826608,48.53438],[-0.821457,48.535969],[-0.813914,48.545264],[-0.807896,48.547003],[-0.808566,48.547967],[-0.805406,48.549602],[-0.805711,48.550701],[-0.7925,48.550755],[-0.78572,48.556096],[-0.779983,48.557931],[-0.773822,48.56344],[-0.773466,48.570734],[-0.774343,48.573063],[-0.77616,48.573432],[-0.774282,48.575229],[-0.774686,48.578292],[-0.770073,48.582021],[-0.769026,48.58642],[-0.77004,48.589687],[-0.758201,48.594572],[-0.758488,48.595826],[-0.752807,48.599533],[-0.751719,48.601863],[-0.750637,48.611619],[-0.752518,48.616159],[-0.751658,48.618559],[-0.75362,48.618475],[-0.75274,48.622329],[-0.741511,48.621003],[-0.738387,48.622409],[-0.742393,48.627518],[-0.763096,48.631373],[-0.764244,48.634377],[-0.762301,48.637122],[-0.769703,48.644306],[-0.773068,48.657886],[-0.766218,48.662485],[-0.759699,48.664266],[-0.758176,48.668972],[-0.759506,48.670616],[-0.756943,48.673557],[-0.745427,48.676375],[-0.744874,48.679961],[-0.743237,48.680956],[-0.736634,48.679587],[-0.734789,48.685675],[-0.741645,48.68745],[-0.743409,48.690125],[-0.762534,48.691836],[-0.780036,48.702775],[-0.790694,48.704325],[-0.799026,48.710253],[-0.798987,48.712427],[-0.804527,48.713745],[-0.803398,48.717386],[-0.806474,48.719503],[-0.804969,48.72205],[-0.80787,48.725516],[-0.817778,48.7312],[-0.828358,48.733712],[-0.833257,48.729187],[-0.832483,48.727968],[-0.834887,48.727445],[-0.837952,48.729381],[-0.841568,48.728193],[-0.849831,48.730917],[-0.851686,48.735907],[-0.852254,48.745652],[-0.84941,48.748667],[-0.841186,48.752381],[-0.820576,48.75332],[-0.799605,48.766403],[-0.794979,48.772118],[-0.79453,48.776852],[-0.781957,48.782942],[-0.780665,48.786591],[-0.757054,48.788828],[-0.740432,48.79268],[-0.727513,48.799099],[-0.712759,48.800525],[-0.704382,48.810629],[-0.695767,48.813511],[-0.690035,48.818554],[-0.682088,48.821866],[-0.686467,48.824323],[-0.690291,48.823813],[-0.695764,48.830277],[-0.701086,48.831553],[-0.705636,48.836877],[-0.705432,48.838459],[-0.693846,48.847377],[-0.68671,48.846526],[-0.685759,48.842612],[-0.68072,48.840623],[-0.672513,48.843737],[-0.669404,48.83958],[-0.665834,48.841362],[-0.661652,48.840328],[-0.660274,48.841451],[-0.655589,48.837488],[-0.643619,48.841106],[-0.641503,48.837459],[-0.642124,48.831585],[-0.645496,48.827281],[-0.623846,48.827075],[-0.604794,48.83439],[-0.580734,48.83807],[-0.574639,48.830342],[-0.57134,48.830233],[-0.559434,48.834636],[-0.548811,48.848028],[-0.539463,48.848121],[-0.529102,48.850349],[-0.519563,48.849439],[-0.517078,48.850833],[-0.509278,48.845816],[-0.499318,48.847022],[-0.494095,48.848565],[-0.494608,48.852423],[-0.496706,48.852036],[-0.500136,48.854361],[-0.496216,48.858538],[-0.488333,48.857373],[-0.482555,48.85925],[-0.476298,48.85889],[-0.473931,48.860118],[-0.474908,48.862394],[-0.46879,48.86931],[-0.463505,48.871464],[-0.449019,48.869309],[-0.447696,48.869501],[-0.449354,48.871078],[-0.438512,48.872978],[-0.438419,48.869529],[-0.433968,48.868812],[-0.432078,48.871447],[-0.43688,48.872474],[-0.432517,48.875026],[-0.42542,48.872355],[-0.423825,48.868295],[-0.42797,48.866685],[-0.426452,48.86562],[-0.423984,48.868172],[-0.413289,48.869424],[-0.409893,48.871597],[-0.406318,48.870063],[-0.404585,48.861279],[-0.393618,48.854923],[-0.385683,48.845126],[-0.384139,48.845544],[-0.384055,48.84917],[-0.382467,48.849437],[-0.375028,48.845544],[-0.365044,48.848971],[-0.360335,48.84813],[-0.358349,48.845574],[-0.360164,48.842868],[-0.374459,48.840798],[-0.367491,48.840001],[-0.373162,48.836502],[-0.373305,48.834954],[-0.364474,48.835458],[-0.363552,48.831456],[-0.355211,48.828196],[-0.345588,48.821937],[-0.340087,48.829614],[-0.329666,48.83575],[-0.329864,48.838384],[-0.326553,48.840059],[-0.335737,48.845174],[-0.32922,48.854266],[-0.330173,48.856429],[-0.328603,48.857741],[-0.306043,48.858439],[-0.30367,48.857286],[-0.303706,48.854973],[-0.298936,48.849251],[-0.295916,48.850568],[-0.296068,48.852536],[-0.293937,48.851336],[-0.289487,48.853383],[-0.282975,48.852346],[-0.27992,48.854518],[-0.27395,48.852506],[-0.271641,48.854047],[-0.266945,48.852267],[-0.261709,48.853632],[-0.260439,48.85279],[-0.26202,48.850288],[-0.260787,48.849506],[-0.254988,48.848807],[-0.250042,48.850116],[-0.245534,48.848306],[-0.241852,48.849495],[-0.237988,48.847256],[-0.231979,48.846813],[-0.229893,48.843413],[-0.22509,48.84419],[-0.213338,48.840236],[-0.205016,48.846793],[-0.202289,48.845425],[-0.202988,48.843198],[-0.19579,48.838227],[-0.191716,48.840632],[-0.177979,48.835468],[-0.17556,48.83279],[-0.179194,48.829224],[-0.173299,48.826955],[-0.171971,48.828524],[-0.168941,48.827426],[-0.170589,48.826267],[-0.169983,48.824731],[-0.15873,48.823423],[-0.152173,48.820441],[-0.147596,48.822969],[-0.127009,48.816549],[-0.14329,48.828311],[-0.14638,48.834609],[-0.141981,48.836108],[-0.133482,48.834565],[-0.128861,48.83859],[-0.126669,48.837689],[-0.123402,48.839643],[-0.125824,48.842691],[-0.123855,48.844102],[-0.127171,48.846295],[-0.124617,48.847787],[-0.11515,48.839227],[-0.109355,48.84229],[-0.10697,48.83977],[-0.101378,48.842889],[-0.082791,48.84489],[-0.075428,48.840557],[-0.0695,48.842762],[-0.068825,48.84025],[-0.066867,48.839683],[-0.067137,48.841679],[-0.065386,48.844167],[-0.063982,48.843787],[-0.059024,48.853876],[-0.036159,48.865245],[-0.030727,48.869892],[-0.03213,48.871203],[-0.030083,48.872619],[-0.031046,48.873849],[-0.02682,48.876554],[-0.023425,48.878097],[-0.019717,48.87429],[-0.012175,48.877584],[-0.006095,48.872405],[-0.010108,48.883957],[-0.007025,48.885691],[0.02596,48.895947],[0.029183,48.896444],[0.030721,48.894122],[0.032062,48.895857],[0.056237,48.901788],[0.057973,48.909998],[0.06317,48.915781],[0.066472,48.927346],[0.070514,48.931775],[0.077573,48.934974],[0.081048,48.938378],[0.100678,48.934376],[0.104021,48.940014],[0.123582,48.948812],[0.127536,48.952296],[0.135405,48.95091],[0.143312,48.945245],[0.145909,48.941204],[0.147929,48.928968],[0.153922,48.924481],[0.169768,48.926306],[0.179614,48.929578],[0.180027,48.932909],[0.183995,48.938553],[0.195217,48.943545],[0.217364,48.94636],[0.221296,48.944632],[0.224067,48.94073],[0.232444,48.939287],[0.242152,48.944397],[0.239203,48.952019],[0.241627,48.953237],[0.246374,48.960209],[0.251023,48.959304],[0.257574,48.963725],[0.276385,48.965686],[0.280328,48.963208],[0.277118,48.961909],[0.277145,48.959733],[0.281449,48.958749],[0.277147,48.956477],[0.279872,48.95545],[0.280756,48.952947],[0.278111,48.952053],[0.277433,48.950039],[0.289219,48.948867],[0.294283,48.95163],[0.308461,48.954371],[0.323614,48.944085],[0.330997,48.945394],[0.332887,48.942619],[0.358507,48.950645],[0.368566,48.959275],[0.377458,48.972541],[0.383323,48.969662],[0.382315,48.969538],[0.385894,48.966202],[0.394482,48.96665],[0.406299,48.963237],[0.400822,48.955973],[0.400173,48.952803],[0.412718,48.950425],[0.410247,48.946694],[0.412155,48.946321],[0.4074,48.944151],[0.408263,48.943546],[0.403579,48.938682],[0.395277,48.931643],[0.395156,48.929211],[0.391445,48.928127],[0.386329,48.918619],[0.387383,48.913314],[0.386051,48.910485],[0.398649,48.907138],[0.405979,48.900621],[0.414134,48.901002],[0.414284,48.899269],[0.421249,48.898675],[0.418,48.891732],[0.421226,48.890294],[0.419693,48.888067],[0.420581,48.886928],[0.441418,48.885325],[0.442733,48.886936],[0.438759,48.888768],[0.448204,48.891283],[0.450198,48.891027],[0.445236,48.886012],[0.444882,48.883779],[0.442899,48.883344],[0.443111,48.88128],[0.452781,48.879124],[0.453174,48.880204],[0.45737,48.879624],[0.45568,48.884008],[0.458575,48.887536],[0.463159,48.888492],[0.47636,48.886967],[0.494822,48.878704],[0.500647,48.878977],[0.506642,48.877167],[0.509743,48.880488],[0.520876,48.880792],[0.540766,48.875472],[0.551281,48.874428],[0.566119,48.88761],[0.57803,48.893711],[0.589848,48.888979],[0.595032,48.888571],[0.597127,48.885027],[0.595293,48.883027],[0.586156,48.881477],[0.585181,48.876801],[0.589629,48.872596],[0.596466,48.875465],[0.604357,48.87413],[0.609055,48.87911],[0.615461,48.877535],[0.608562,48.874054],[0.604899,48.870109],[0.602341,48.862628],[0.608289,48.86146],[0.612091,48.85764],[0.609167,48.853313],[0.621254,48.852448],[0.630328,48.853613],[0.633953,48.856194],[0.636229,48.854417],[0.620211,48.847115],[0.616699,48.843473],[0.614709,48.836837],[0.60756,48.832793],[0.617936,48.829292],[0.621856,48.829826],[0.62998,48.824114],[0.636747,48.822237],[0.642845,48.816588],[0.648953,48.81589],[0.665104,48.809907],[0.688993,48.793571],[0.695273,48.79509],[0.701069,48.792009],[0.711999,48.789324],[0.715391,48.785448],[0.720565,48.787967],[0.732042,48.785642],[0.733492,48.783682],[0.732568,48.78277],[0.740187,48.77658],[0.752762,48.772792],[0.759394,48.767526],[0.749373,48.760815],[0.761657,48.752108],[0.775032,48.737352],[0.768438,48.735143],[0.769359,48.733897],[0.760557,48.728377],[0.759115,48.720355],[0.742196,48.716686],[0.728656,48.706824],[0.731786,48.703219],[0.739999,48.704621],[0.752695,48.704116],[0.75384,48.702277],[0.766509,48.696632],[0.767963,48.694619],[0.767286,48.692435],[0.760126,48.686823],[0.763187,48.686075],[0.761516,48.680218],[0.769254,48.678641],[0.769048,48.67694],[0.764934,48.677132],[0.764008,48.675407],[0.767102,48.674099],[0.768721,48.669895],[0.7754,48.669444],[0.782324,48.666704],[0.788067,48.670248],[0.789865,48.673558],[0.796168,48.675326],[0.80776,48.67075],[0.811658,48.671686],[0.814825,48.670164],[0.809362,48.664873],[0.809689,48.662446],[0.818233,48.659393],[0.818163,48.654333],[0.824422,48.649943],[0.824916,48.648506],[0.821563,48.644613],[0.823231,48.638457],[0.82168,48.636056],[0.82427,48.633854],[0.831756,48.633419],[0.825704,48.62932],[0.81717,48.615458],[0.819636,48.609871],[0.822617,48.608931],[0.82967,48.611114],[0.839788,48.608218],[0.847097,48.609686],[0.847103,48.598713],[0.849983,48.591639],[0.848866,48.588697],[0.850635,48.582626],[0.857423,48.580583],[0.85949,48.577751],[0.868339,48.572777],[0.880481,48.574248],[0.894135,48.57169],[0.903285,48.565983],[0.923659,48.558258],[0.925725,48.559862],[0.939326,48.549175],[0.936025,48.546607],[0.932088,48.54697],[0.931015,48.543301],[0.926907,48.54217],[0.922516,48.537741],[0.933808,48.532259],[0.944666,48.530878],[0.952255,48.526259],[0.967419,48.523854],[0.965311,48.518046],[0.954153,48.50372],[0.94147,48.498829],[0.949789,48.493481],[0.955423,48.492861],[0.954238,48.483289],[0.956369,48.482437],[0.945146,48.47718],[0.941271,48.477691],[0.935693,48.475602],[0.938506,48.469145],[0.937349,48.467566],[0.939847,48.466162],[0.938973,48.460837],[0.941603,48.456857],[0.94569,48.457429],[0.945273,48.456157],[0.947693,48.455977],[0.947431,48.45356],[0.957792,48.442741],[0.970578,48.441306],[0.973523,48.443804],[0.976564,48.44114],[0.976415,48.438769],[0.971159,48.434456],[0.957655,48.428228],[0.954799,48.422381],[0.944422,48.417115],[0.943734,48.410065],[0.950427,48.399452],[0.94059,48.398316],[0.936217,48.395261],[0.936629,48.393909],[0.929898,48.391417],[0.926287,48.384183],[0.923956,48.384602],[0.917901,48.377185],[0.916743,48.379483],[0.914194,48.379225],[0.916377,48.374484],[0.912567,48.37393],[0.909144,48.370314],[0.900629,48.373975],[0.883505,48.356542],[0.882386,48.357403],[0.881306,48.355781],[0.878919,48.356695],[0.875577,48.355423],[0.872901,48.356213],[0.871365,48.359593],[0.863487,48.353726],[0.861951,48.350945],[0.852266,48.348462],[0.847087,48.351308],[0.839927,48.35272],[0.840767,48.35027],[0.844031,48.350893],[0.842085,48.3487],[0.842367,48.346563],[0.83917,48.346786],[0.838997,48.345007],[0.836998,48.346137],[0.831082,48.345334],[0.827986,48.34231],[0.818436,48.349547],[0.812171,48.349377],[0.806832,48.344173],[0.803486,48.345162],[0.794718,48.341832],[0.791463,48.342802],[0.785397,48.340457],[0.784225,48.333622],[0.780256,48.332016],[0.769118,48.322418],[0.769585,48.316246],[0.768063,48.31539],[0.770435,48.314335],[0.762461,48.310561],[0.762909,48.307004],[0.755689,48.299921],[0.760163,48.300072],[0.760008,48.298396],[0.762638,48.298181],[0.769232,48.302506],[0.773203,48.302111],[0.774498,48.303803],[0.77478,48.301465],[0.778503,48.303401],[0.79363,48.29297],[0.807666,48.289826],[0.796435,48.287114],[0.793496,48.284316],[0.791718,48.281131],[0.792162,48.277993],[0.785871,48.271138],[0.791793,48.265051],[0.787452,48.261293],[0.791349,48.261073],[0.791981,48.25825],[0.801214,48.251258],[0.799917,48.250548],[0.802114,48.249921],[0.802415,48.248072],[0.800679,48.247555],[0.802118,48.244821],[0.812029,48.234618],[0.810232,48.233682],[0.81588,48.231558],[0.819577,48.225048],[0.825788,48.220955],[0.830255,48.214162],[0.830678,48.210759],[0.822455,48.210182],[0.81637,48.207642],[0.814951,48.205592],[0.805441,48.205498],[0.805415,48.202479],[0.808799,48.197614],[0.777262,48.188251],[0.770288,48.183969],[0.75769,48.17989],[0.755692,48.182361],[0.744642,48.18512],[0.737655,48.18925],[0.734567,48.196251],[0.730053,48.200958],[0.723573,48.198308],[0.721979,48.20006],[0.72217,48.203992],[0.715676,48.21478],[0.712158,48.21487],[0.70956,48.218091],[0.704146,48.219094],[0.70614,48.220798],[0.705045,48.222117],[0.706754,48.222657],[0.700021,48.228568],[0.700184,48.231828],[0.693379,48.238136],[0.686064,48.240711],[0.686945,48.241953],[0.685438,48.243779],[0.688331,48.246505],[0.686926,48.248342],[0.682117,48.248816],[0.684113,48.253992],[0.683085,48.255036],[0.673232,48.254769],[0.665076,48.260855],[0.6617,48.260532],[0.651778,48.264224],[0.640219,48.261357],[0.637309,48.258416],[0.633284,48.257472],[0.6311,48.252584],[0.63395,48.249506],[0.632805,48.246142],[0.638521,48.235445],[0.635085,48.235784],[0.633942,48.234288],[0.627945,48.237052],[0.630834,48.241009],[0.626163,48.242981],[0.624317,48.245497],[0.611693,48.241938],[0.607763,48.244801],[0.566962,48.245113],[0.551802,48.24779],[0.546962,48.250582],[0.536467,48.249346],[0.538137,48.258917],[0.532624,48.264777],[0.518116,48.266874],[0.51662,48.269234],[0.512994,48.266669],[0.511815,48.269496],[0.513385,48.270771],[0.510586,48.270346],[0.50804,48.273455],[0.503488,48.274725],[0.502812,48.2785],[0.493486,48.283372],[0.494556,48.286816],[0.499962,48.291855],[0.507492,48.295338],[0.493338,48.305368],[0.490238,48.309619],[0.480541,48.29854],[0.473738,48.300499],[0.466542,48.306007],[0.457834,48.30527],[0.455912,48.30656],[0.442785,48.304614],[0.438364,48.306481],[0.431334,48.306639],[0.431329,48.308589],[0.428256,48.310612],[0.426031,48.318014],[0.416363,48.322361],[0.411513,48.320578],[0.413362,48.318967],[0.412876,48.31707],[0.410841,48.317642],[0.40599,48.314827],[0.398695,48.319068],[0.398783,48.320493],[0.395715,48.320329],[0.391028,48.325425],[0.391571,48.327141],[0.382537,48.333994],[0.380498,48.343186],[0.384834,48.342912],[0.385146,48.34734],[0.387724,48.347343],[0.388053,48.349292],[0.386516,48.352556],[0.383572,48.352657],[0.382324,48.358274],[0.383358,48.36236],[0.38223,48.362046],[0.379428,48.366466],[0.380731,48.372784],[0.379872,48.380235],[0.378644,48.380298],[0.378714,48.383188],[0.375977,48.384346],[0.376949,48.385628],[0.373861,48.38697],[0.377308,48.391447],[0.374536,48.393989],[0.37514,48.398952],[0.371525,48.410827],[0.381028,48.416278],[0.381018,48.422607],[0.382623,48.425135],[0.378795,48.426496],[0.373345,48.433812],[0.371073,48.434648],[0.370493,48.437238],[0.367481,48.438014],[0.368459,48.441603],[0.364081,48.446407],[0.365551,48.448438],[0.36288,48.450574],[0.364067,48.451846],[0.359499,48.453199],[0.356661,48.457912],[0.352891,48.459762],[0.346103,48.458694],[0.338434,48.461792],[0.335514,48.463591],[0.337683,48.465905],[0.329309,48.468347],[0.326756,48.47175],[0.322473,48.47316],[0.317526,48.471424],[0.314325,48.473397],[0.310223,48.471991],[0.307792,48.4755],[0.304027,48.475189],[0.300585,48.48058],[0.288595,48.478469],[0.280031,48.481911],[0.275801,48.479166],[0.271226,48.481259],[0.272143,48.482496],[0.270484,48.484129],[0.265451,48.485027],[0.261413,48.482239],[0.261813,48.479656],[0.259232,48.476911],[0.257184,48.477434],[0.248822,48.473953],[0.241927,48.474315],[0.240886,48.475994],[0.231444,48.472458],[0.213753,48.473658],[0.190437,48.46191],[0.182072,48.465235],[0.173101,48.465243],[0.169513,48.461344],[0.170487,48.454065],[0.173616,48.450977],[0.171325,48.449494],[0.162301,48.450912],[0.152453,48.457507],[0.145886,48.457593],[0.143584,48.455822],[0.144905,48.452835],[0.148055,48.452559],[0.147172,48.450809],[0.148377,48.449053],[0.158306,48.444132],[0.157678,48.440753],[0.15136,48.437386],[0.134158,48.437113],[0.126877,48.434651],[0.117425,48.436379],[0.111418,48.432379],[0.106462,48.426604],[0.110442,48.423227],[0.105064,48.414776],[0.099874,48.410191],[0.083954,48.411175],[0.076461,48.408111],[0.070546,48.409093],[0.053819,48.391903],[0.058037,48.389593],[0.062347,48.382889],[0.061176,48.37985],[0.016474,48.381326],[0.011607,48.385644],[0.010507,48.390236],[0.003574,48.388786],[0.003165,48.396158],[-0.002488,48.397537],[-0.007249,48.394751],[-0.010613,48.396088],[-0.011567,48.393628],[-0.019632,48.394406],[-0.022353,48.39143],[-0.021271,48.385438],[-0.034916,48.386415],[-0.036431,48.380819],[-0.040872,48.381217],[-0.043435,48.379213],[-0.050901,48.380193],[-0.051741,48.378718],[-0.050272,48.375219],[-0.054918,48.378285],[-0.053883,48.381971],[-0.057124,48.384353],[-0.057975,48.387277],[-0.05385,48.389082],[-0.052516,48.392496],[-0.056334,48.395627],[-0.055075,48.406919],[-0.057778,48.408663],[-0.052297,48.413405],[-0.057791,48.420755],[-0.052614,48.424258],[-0.057409,48.429581],[-0.056972,48.4313],[-0.054996,48.430662],[-0.051612,48.440245],[-0.052258,48.442631],[-0.049815,48.444408],[-0.050923,48.445507],[-0.049142,48.449522],[-0.051298,48.450619],[-0.051015,48.45297],[-0.070658,48.458422],[-0.072808,48.456999],[-0.071915,48.453029],[-0.073123,48.450586],[-0.088999,48.450338],[-0.106263,48.447034],[-0.12489,48.449432],[-0.147486,48.456947],[-0.149809,48.460035],[-0.150554,48.465137],[-0.149564,48.470687],[-0.147245,48.473111],[-0.152782,48.47651],[-0.149234,48.481198],[-0.155449,48.486937],[-0.156135,48.495991],[-0.168266,48.503919],[-0.170771,48.501796],[-0.172366,48.502268],[-0.170773,48.506804],[-0.171434,48.509262],[-0.173255,48.509779],[-0.166011,48.513824],[-0.168113,48.515361],[-0.155772,48.52065],[-0.149433,48.518635],[-0.145866,48.520348],[-0.144474,48.524509],[-0.146328,48.524932],[-0.144375,48.527727],[-0.170278,48.53731],[-0.173455,48.541424],[-0.17938,48.540918],[-0.180583,48.544984],[-0.189997,48.549048],[-0.193985,48.554788],[-0.203712,48.559494],[-0.208232,48.564226],[-0.212637,48.562981],[-0.217153,48.558011],[-0.220318,48.560546],[-0.234334,48.561812],[-0.24264,48.567994],[-0.24618,48.566381],[-0.248928,48.563386],[-0.246469,48.557911],[-0.262739,48.548409],[-0.24656,48.542879],[-0.240879,48.536862],[-0.251005,48.526917],[-0.253284,48.525855],[-0.2611,48.527066],[-0.264004,48.522473],[-0.274843,48.517914],[-0.267835,48.516957],[-0.267226,48.513738],[-0.271471,48.507411],[-0.285191,48.506358],[-0.286362,48.51187],[-0.284819,48.516842],[-0.288097,48.519363],[-0.288823,48.517092],[-0.293548,48.515234],[-0.308935,48.518499],[-0.320105,48.523116],[-0.329684,48.513526],[-0.336137,48.509466],[-0.334758,48.505275],[-0.337186,48.500792],[-0.350427,48.500978],[-0.353872,48.496102],[-0.355931,48.495707],[-0.355396,48.492669],[-0.349366,48.488849],[-0.353156,48.483719],[-0.357593,48.483774],[-0.364427,48.487737],[-0.368665,48.48803],[-0.368959,48.492613],[-0.366594,48.4941],[-0.372747,48.496171],[-0.383132,48.496793],[-0.393384,48.501169],[-0.391137,48.508733],[-0.394769,48.510182],[-0.398718,48.510582],[-0.398421,48.508546],[-0.407446,48.505585],[-0.416562,48.50799],[-0.423533,48.506797],[-0.425682,48.507599],[-0.42461,48.509572],[-0.432304,48.511422],[-0.43163,48.512512],[-0.433733,48.51371],[-0.438587,48.511652],[-0.447359,48.515415],[-0.450574,48.512913],[-0.456654,48.511851],[-0.462688,48.512271],[-0.462648,48.513524],[-0.470041,48.512087],[-0.470688,48.509884],[-0.468413,48.508606],[-0.47193,48.507708],[-0.471808,48.506071],[-0.473887,48.505674],[-0.473788,48.503239],[-0.476964,48.503374],[-0.478278,48.501593],[-0.487812,48.504342],[-0.488517,48.501364],[-0.492908,48.501759],[-0.500281,48.504458],[-0.499255,48.507387],[-0.505008,48.505924],[-0.510086,48.509016],[-0.514626,48.503655],[-0.517375,48.503468],[-0.516174,48.498274],[-0.520552,48.497258],[-0.52131,48.495238],[-0.52825,48.496494],[-0.528042,48.495256],[-0.530629,48.495134],[-0.537713,48.490424],[-0.539236,48.484193],[-0.549438,48.480552],[-0.551227,48.473327],[-0.559831,48.472094],[-0.565288,48.477066],[-0.572526,48.46859],[-0.585976,48.472081],[-0.593216,48.470849],[-0.595337,48.472629],[-0.615739,48.45882],[-0.626596,48.456673],[-0.651075,48.443947],[-0.654092,48.44459],[-0.655794,48.447544],[-0.653897,48.449899],[-0.653549,48.459621],[-0.659919,48.469407],[-0.656043,48.473019],[-0.655821,48.475123],[-0.657619,48.47682],[-0.662995,48.476617],[-0.660234,48.479921],[-0.662269,48.483923],[-0.665862,48.485831],[-0.6688,48.486547],[-0.66864,48.483526],[-0.670024,48.482544],[-0.67422,48.485113],[-0.676802,48.484185],[-0.675259,48.48066],[-0.677458,48.478886],[-0.685567,48.477203],[-0.685625,48.474585],[-0.68151,48.470893],[-0.692189,48.468059],[-0.70272,48.467773],[-0.70404,48.470396],[-0.699745,48.473938],[-0.70532,48.47569],[-0.708615,48.474438],[-0.713667,48.469246],[-0.721981,48.470377],[-0.724939,48.473447],[-0.727874,48.472238]],[[-0.433009,48.86317],[-0.430437,48.863023],[-0.428812,48.863591],[-0.43339,48.865936],[-0.433009,48.86317]]],"type":"Polygon"}}]}
